{"type": "FeatureCollection", "features": [ {"type": "Feature", "properties": {"norad_id": 38779, "name": "GSAT-10 (GAGAN/PRN 128)", "group": "gnss", "lat": -0.03098417646819474, "lon": 116.90214463883332, "alt_km": 35775.57342052259, "timestamp": "2025-12-14T20:40:32.013734+00:00", "meta": {"OBJECT_NAME": "GSAT-10 (GAGAN/PRN 128)", "OBJECT_ID": "2012-051B", "EPOCH": "2025-12-14T03:32:31.718976", "MEAN_MOTION": 1.00273023, "ECCENTRICITY": 0.00024774, "INCLINATION": 0.0861, "RA_OF_ASC_NODE": 266.1624, "ARG_OF_PERICENTER": 223.081, "MEAN_ANOMALY": 89.9669, "EPHEMERIS_TYPE": 0, "CLASSIFICATION_TYPE": "U", "NORAD_CAT_ID": 38779, "ELEMENT_SET_NO": 999, "REV_AT_EPOCH": 4824, "BSTAR": 0, "MEAN_MOTION_DOT": -1.48e-06, "MEAN_MOTION_DDOT": 0}, "tle": {"line1": "1 38779U 12051B   25348.14758934 -.00000148  00000+0  00000+0 0  9998", "line2": "2 38779   0.0861 266.1624 0002477 223.0810  89.9669  1.00273023 48247"}}, "geometry": {"type": "Point", "coordinates": [116.90214463883332, -0.03098417646819474]}}, {"type": "Feature", "properties": {"norad_id": 38833, "name": "GPS BIIF-3  (PRN 24)", "group": "gnss", "lat": 9.456758321843184, "lon": 158.21326659142815, "alt_km": 19890.03560217364, "timestamp": "2025-12-14T20:40:32.013746+00:00", "meta": {"OBJECT_NAME": "GPS BIIF-3  (PRN 24)", "OBJECT_ID": "2012-053A", "EPOCH": "2025-12-13T20:21:34.724448", "MEAN_MOTION": 2.00565042, "ECCENTRICITY": 0.01758819, "INCLINATION": 53.5579, "RA_OF_ASC_NODE": 151.1931, "ARG_OF_PERICENTER": 64.0051, "MEAN_ANOMALY": 297.7998, "EPHEMERIS_TYPE": 0, "CLASSIFICATION_TYPE": "U", "NORAD_CAT_ID": 38833, "ELEMENT_SET_NO": 999, "REV_AT_EPOCH": 9572, "BSTAR": 0, "MEAN_MOTION_DOT": 9.2e-07, "MEAN_MOTION_DDOT": 0}, "tle": {"line1": "1 38833U 12053A   25347.84831857  .00000092  00000+0  00000+0 0  9990", "line2": "2 38833  53.5579 151.1931 0175881  64.0051 297.7998  2.00565042 95726"}}, "geometry": {"type": "Point", "coordinates": [158.21326659142815, 9.456758321843184]}}, {"type": "Feature", "properties": {"norad_id": 38857, "name": "GSAT0103 (GALILEO-FM3)", "group": "gnss", "lat": 54.76067627930408, "lon": -148.33286504398123, "alt_km": 23223.746847583443, "timestamp": "2025-12-14T20:40:32.013760+00:00", "meta": {"OBJECT_NAME": "GSAT0103 (GALILEO-FM3)", "OBJECT_ID": "2012-055A", "EPOCH": "2025-12-13T12:39:44.093088", "MEAN_MOTION": 1.70473367, "ECCENTRICITY": 0.00026827, "INCLINATION": 55.6929, "RA_OF_ASC_NODE": 106.6448, "ARG_OF_PERICENTER": 268.8486, "MEAN_ANOMALY": 91.0883, "EPHEMERIS_TYPE": 0, "CLASSIFICATION_TYPE": "U", "NORAD_CAT_ID": 38857, "ELEMENT_SET_NO": 999, "REV_AT_EPOCH": 8184, "BSTAR": 0, "MEAN_MOTION_DOT": 1e-08, "MEAN_MOTION_DDOT": 0}, "tle": {"line1": "1 38857U 12055A   25347.52759367  .00000001  00000+0  00000+0 0  9998", "line2": "2 38857  55.6929 106.6448 0002682 268.8486  91.0883  1.70473367 81846"}}, "geometry": {"type": "Point", "coordinates": [-148.33286504398123, 54.76067627930408]}}, {"type": "Feature", "properties": {"norad_id": 38953, "name": "BEIDOU-2 G6 (C02)", "group": "gnss", "lat": 2.685538638520132, "lon": 117.91077204501522, "alt_km": 35798.87031946419, "timestamp": "2025-12-14T20:40:32.013772+00:00", "meta": {"OBJECT_NAME": "BEIDOU-2 G6 (C02)", "OBJECT_ID": "2012-059A", "EPOCH": "2025-12-13T20:41:54.109248", "MEAN_MOTION": 1.00269673, "ECCENTRICITY": 0.00079036, "INCLINATION": 3.9524, "RA_OF_ASC_NODE": 75.4959, "ARG_OF_PERICENTER": 290.1643, "MEAN_ANOMALY": 111.6061, "EPHEMERIS_TYPE": 0, "CLASSIFICATION_TYPE": "U", "NORAD_CAT_ID": 38953, "ELEMENT_SET_NO": 999, "REV_AT_EPOCH": 4805, "BSTAR": 0, "MEAN_MOTION_DOT": -1.6e-06, "MEAN_MOTION_DDOT": 0}, "tle": {"line1": "1 38953U 12059A   25347.86243182 -.00000160  00000+0  00000+0 0  9996", "line2": "2 38953   3.9524  75.4959 0007903 290.1643 111.6061  1.00269673 48053"}}, "geometry": {"type": "Point", "coordinates": [117.91077204501522, 2.685538638520132]}}, {"type": "Feature", "properties": {"norad_id": 38977, "name": "LUCH 5B (SDCM/PRN 125)", "group": "gnss", "lat": -5.622288151365159, "lon": 18.039319848759877, "alt_km": 35806.488849619134, "timestamp": "2025-12-14T20:40:32.013785+00:00", "meta": {"OBJECT_NAME": "LUCH 5B (SDCM/PRN 125)", "OBJECT_ID": "2012-061A", "EPOCH": "2025-12-13T23:38:39.482016", "MEAN_MOTION": 1.00272417, "ECCENTRICITY": 0.00069741, "INCLINATION": 10.0843, "RA_OF_ASC_NODE": 51.6952, "ARG_OF_PERICENTER": 193.6655, "MEAN_ANOMALY": 175.8757, "EPHEMERIS_TYPE": 0, "CLASSIFICATION_TYPE": "U", "NORAD_CAT_ID": 38977, "ELEMENT_SET_NO": 999, "REV_AT_EPOCH": 4775, "BSTAR": 0, "MEAN_MOTION_DOT": -1.27e-06, "MEAN_MOTION_DDOT": 0}, "tle": {"line1": "1 38977U 12061A   25347.98517919 -.00000127  00000+0  00000+0 0  9993", "line2": "2 38977  10.0843  51.6952 0006974 193.6655 175.8757  1.00272417 47758"}}, "geometry": {"type": "Point", "coordinates": [18.039319848759877, -5.622288151365159]}}, {"type": "Feature", "properties": {"norad_id": 39155, "name": "COSMOS 2485 (747)", "group": "gnss", "lat": -61.835608705663404, "lon": 20.738588848408003, "alt_km": 19099.61810877199, "timestamp": "2025-12-14T20:40:32.013797+00:00", "meta": {"OBJECT_NAME": "COSMOS 2485 (747)", "OBJECT_ID": "2013-019A", "EPOCH": "2025-12-13T13:15:58.678272", "MEAN_MOTION": 2.13102947, "ECCENTRICITY": 0.00246467, "INCLINATION": 65.3142, "RA_OF_ASC_NODE": 79.8396, "ARG_OF_PERICENTER": 229.7128, "MEAN_ANOMALY": 130.0848, "EPHEMERIS_TYPE": 0, "CLASSIFICATION_TYPE": "U", "NORAD_CAT_ID": 39155, "ELEMENT_SET_NO": 999, "REV_AT_EPOCH": 9832, "BSTAR": 0, "MEAN_MOTION_DOT": -4.8e-07, "MEAN_MOTION_DDOT": 0}, "tle": {"line1": "1 39155U 13019A   25347.55276248 -.00000048  00000+0  00000+0 0  9998", "line2": "2 39155  65.3142  79.8396 0024646 229.7128 130.0848  2.13102947 98326"}}, "geometry": {"type": "Point", "coordinates": [20.738588848408003, -61.835608705663404]}}, {"type": "Feature", "properties": {"norad_id": 39166, "name": "GPS BIIF-4  (PRN 27)", "group": "gnss", "lat": 48.96530968009113, "lon": 41.93287196895214, "alt_km": 20010.432774984147, "timestamp": "2025-12-14T20:40:32.013810+00:00", "meta": {"OBJECT_NAME": "GPS BIIF-4  (PRN 27)", "OBJECT_ID": "2013-023A", "EPOCH": "2025-12-13T05:07:46.586496", "MEAN_MOTION": 2.0056518, "ECCENTRICITY": 0.01379131, "INCLINATION": 54.6516, "RA_OF_ASC_NODE": 276.5489, "ARG_OF_PERICENTER": 48.6136, "MEAN_ANOMALY": 312.5751, "EPHEMERIS_TYPE": 0, "CLASSIFICATION_TYPE": "U", "NORAD_CAT_ID": 39166, "ELEMENT_SET_NO": 999, "REV_AT_EPOCH": 9215, "BSTAR": 0, "MEAN_MOTION_DOT": -7.6e-07, "MEAN_MOTION_DDOT": 0}, "tle": {"line1": "1 39166U 13023A   25347.21373364 -.00000076  00000+0  00000+0 0  9996", "line2": "2 39166  54.6516 276.5489 0137913  48.6136 312.5751  2.00565180 92155"}}, "geometry": {"type": "Point", "coordinates": [41.93287196895214, 48.96530968009113]}}, {"type": "Feature", "properties": {"norad_id": 39199, "name": "IRNSS-1A", "group": "gnss", "lat": 12.951512400750255, "lon": 85.44581866329344, "alt_km": 35869.24185893954, "timestamp": "2025-12-14T20:40:32.013822+00:00", "meta": {"OBJECT_NAME": "IRNSS-1A", "OBJECT_ID": "2013-034A", "EPOCH": "2025-12-02T19:49:26.431104", "MEAN_MOTION": 1.00279053, "ECCENTRICITY": 0.00216608, "INCLINATION": 35.2852, "RA_OF_ASC_NODE": 66.6964, "ARG_OF_PERICENTER": 185.4059, "MEAN_ANOMALY": 172.3398, "EPHEMERIS_TYPE": 0, "CLASSIFICATION_TYPE": "U", "NORAD_CAT_ID": 39199, "ELEMENT_SET_NO": 999, "REV_AT_EPOCH": 4539, "BSTAR": 0, "MEAN_MOTION_DOT": 6.5e-07, "MEAN_MOTION_DDOT": 0}, "tle": {"line1": "1 39199U 13034A   25336.82600036  .00000065  00000+0  00000+0 0  9995", "line2": "2 39199  35.2852  66.6964 0021660 185.4059 172.3398  1.00279053 45393"}}, "geometry": {"type": "Point", "coordinates": [85.44581866329344, 12.951512400750255]}}, {"type": "Feature", "properties": {"norad_id": 39533, "name": "GPS BIIF-5  (PRN 30)", "group": "gnss", "lat": 47.94082096822875, "lon": -77.95428096955398, "alt_km": 20259.223207772324, "timestamp": "2025-12-14T20:40:32.013835+00:00", "meta": {"OBJECT_NAME": "GPS BIIF-5  (PRN 30)", "OBJECT_ID": "2014-008A", "EPOCH": "2025-12-13T16:57:00.836352", "MEAN_MOTION": 2.00574526, "ECCENTRICITY": 0.00792524, "INCLINATION": 53.6313, "RA_OF_ASC_NODE": 156.8852, "ARG_OF_PERICENTER": 226.5204, "MEAN_ANOMALY": 132.8312, "EPHEMERIS_TYPE": 0, "CLASSIFICATION_TYPE": "U", "NORAD_CAT_ID": 39533, "ELEMENT_SET_NO": 999, "REV_AT_EPOCH": 8596, "BSTAR": 0, "MEAN_MOTION_DOT": 9.8e-07, "MEAN_MOTION_DDOT": 0}, "tle": {"line1": "1 39533U 14008A   25347.70625968  .00000098  00000+0  00000+0 0  9995", "line2": "2 39533  53.6313 156.8852 0079252 226.5204 132.8312  2.00574526 85966"}}, "geometry": {"type": "Point", "coordinates": [-77.95428096955398, 47.94082096822875]}}, {"type": "Feature", "properties": {"norad_id": 39617, "name": "ASTRA 5B (EGNOS/PRN 123)", "group": "gnss", "lat": 0.03692001246004283, "lon": 57.41617499408549, "alt_km": 35801.33610845611, "timestamp": "2025-12-14T20:40:32.013847+00:00", "meta": {"OBJECT_NAME": "ASTRA 5B (EGNOS/PRN 123)", "OBJECT_ID": "2014-011B", "EPOCH": "2025-12-14T06:40:51.181824", "MEAN_MOTION": 1.00273338, "ECCENTRICITY": 0.00042871, "INCLINATION": 0.0639, "RA_OF_ASC_NODE": 41.0853, "ARG_OF_PERICENTER": 226.1071, "MEAN_ANOMALY": 299.7109, "EPHEMERIS_TYPE": 0, "CLASSIFICATION_TYPE": "U", "NORAD_CAT_ID": 39617, "ELEMENT_SET_NO": 999, "REV_AT_EPOCH": 4281, "BSTAR": 0, "MEAN_MOTION_DOT": 1.55e-06, "MEAN_MOTION_DDOT": 0}, "tle": {"line1": "1 39617U 14011B   25348.27837016  .00000155  00000+0  00000+0 0  9998", "line2": "2 39617   0.0639  41.0853 0004287 226.1071 299.7109  1.00273338 42816"}}, "geometry": {"type": "Point", "coordinates": [57.41617499408549, 0.03692001246004283]}}]}